API VERSION: 1.2
API SOURCE: NASA/JPL Horizons API

*******************************************************************************
 Revised: Sep 28, 2018   Cassini Spacecraft (interplanetary) / (Sun)        -82
                               http://saturn.jpl.nasa.gov/
 
 UPDATED with "final" post-mission reconstruction, 2004 to end-of-mission.

 UPDATED with final trajectory prediction prior to atmospheric entry and
  end of mission. Schedule of events for final day:

  2017-Sep-15
    Event time at Saturn                          Signal receipt time at Earth
     5:08 UTC (10:08 pm PDT - Sept. 14) 
      High above Saturn, Cassini crosses the orbital distance of Enceladus 
      for the last time 	 

     7:14 UTC (12:14 am PDT)                         8:37 UTC (1:37 am PDT)
      Spacecraft begins a 5-minute roll to point instrument (INMS) that will 
      sample Saturn's atmosphere and reconfigures systems for real-time data 
      transmission at 27 kilobits per second (3.4 kilobytes per second). 
      Final, real-time relay of data begins  	

     7:22 UTC (12:22 am PDT) 
      High above Saturn, Cassini crosses the orbital distance of the F ring 
      (outermost of the main rings) for the last time 	 

    10:31 UTC (3:31 am PDT)                        11:54 UTC (4:54 am PDT)
      Atmospheric entry begins; thrusters firing at 10% of capacity  	

    10:32 UTC (3:32 am PDT)                        11:55 UTC (4:55 am PDT)
      Thrusters at 100% of capacity; high-gain antenna begins to point away 
      from Earth, leading to loss of signal.

 BACKGROUND:
  Cassini completed its initial four-year mission to explore the Saturn System 
  in June 2008 and the first extended mission, called the Cassini Equinox 
  Mission, in September 2010. Now, the healthy spacecraft is seeking to make 
  new discoveries in a second extended mission called the Cassini Solstice 
  Mission.

  The mission's extension, which goes through September 2017, is named for the 
  Saturnian summer solstice occurring in May 2017. The northern summer solstice
  marks the beginning of summer in the northern hemisphere and winter in the 
  southern hemisphere. Since Cassini arrived at Saturn just after the planet's
  northern winter solstice, the extension will allow for the first study of a 
  complete seasonal period.

  Cassini launched in October 1997 with the European Space Agency's Huygens 
  probe.  The probe was equipped with six instruments to study Titan, Saturn's 
  largest moon. It landed on Titan's surface on Jan. 14, 2005.

  Meanwhile, Cassini's 12 instruments have returned a daily stream of data from 
  Saturn's system since arriving at Saturn in 2004.

  Among the most important targets of the mission are the moons Titan and 
  Enceladus, as well as some of Saturn's other icy moons. Towards the end of 
  the mission, Cassini will make closer studies of the planet and its rings.

 SPACECRAFT PHYSICAL CHARACTERISTICS:
  Power at Saturn        = ~660 Watts      Data storage           = 4 Gbits
  Star catalog           = 3700 stars      Engineering Subsys     = 12
  Height                 = 6.8 m           Engineering computers  = 26
  Primary s/w language   = Ada             Parts count            > 100000
  Transmitter power      = 19 Watts (RF)   Main engine thrust     = 445 Newtons
  Data Rate at Saturn    = 140000 bits/s   # of telemetry measurs = 11000
  Orbiter Instruments    = 12              Huygens Instruments    = 6
  Total sensors          = 66              Radar power            = 108 Watts
  Fuel mass              = 3132 kg

 ATTITUDE CONTROL:
  Attitude control     = 3-axis stabil.    Pointing accuracy      = 2.0 mrad
  Pointing Stability   = 0.036 mrad/5-sec

 SPACECRAFT TRAJECTORY:
  Trajectories provided by the Navigation Team (concatenated here). 

  Last update is the navigation post-mission reconstruction segment
  released 2018-June-29.

   Trajectory segment name    Start date (TDB)     End date (TDB)
   -------------------------- -----------------    -----------------
   000331R_SK_LP0_V1P32       1997-Oct-15 09:28 to 1998-May-28 21:23
   000331B_SK_V1P32_V2P12     1998-May-28 21:23 to 1999-Jul-06 16:01
   000331R_SK_V2P12_EP15      1999-Jul-06 16:01 to 1999-Aug-19 02:00
   010420R_SCPSE_EP1_JP83     1999-Aug-19 02:00 to 2001-Mar-07 12:00
   010423_SK_JP67_SP0         2001-Mar-07 12:00 to 2002-Apr-11 00:00
   020425B_SK_SM812_T45       2002-Apr-11 00:00 to 2003-Jan-01 12:00
   030201AP_OPK_SM546_T45     2003-Jan-01 12:00 to 2004-May-01 12:00
   040622AP_OPK_04122_08222   2004-May-01 12:00 to 2004-Jul-01 14:00
   180628RU_SCPSE_04183_17258 2004-Jul-01 14:00 to 2017-Sep-15 11:58
*******************************************************************************


*******************************************************************************
Ephemeris / API_USER Mon May 18 17:49:53 2026 Pasadena, USA      / Horizons
*******************************************************************************
Target body name: Cassini (spacecraft) (-82)      {source: cassini_merge}
Center body name: Saturn Barycenter (6)           {source: cassini_merge}
Center-site name: BODY CENTER
*******************************************************************************
Start time      : A.D. 2004-Jun-30 00:00:00.0000 TDB
Stop  time      : A.D. 2004-Jul-02 00:00:00.0000 TDB
Step-size       : 60 minutes
*******************************************************************************
Center geodetic : 0.0, 0.0, 0.0                   {E-lon(deg),Lat(deg),Alt(km)}
Center cylindric: 0.0, 0.0, 0.0                   {E-lon(deg),Dxy(km),Dz(km)}
Center radii    : (undefined)
Output units    : KM-S
Calendar mode   : Mixed Julian/Gregorian
Output type     : GEOMETRIC cartesian states
Output format   : 3 (position, velocity, LT, range, range-rate)
Reference frame : Ecliptic of J2000.0
*******************************************************************************
JDTDB
   X     Y     Z
   VX    VY    VZ
   LT    RG    RR
*******************************************************************************
$$SOE
2453186.500000000 = A.D. 2004-Jun-30 00:00:00.0000 TDB 
 X =-7.162816595081352E+05 Y =-9.147169605028098E+05 Z = 2.164156995826307E+05
 VX= 7.286611875550177E+00 VY= 6.112948908359641E+00 VZ=-9.034762149483917E-01
 LT= 3.941991393573860E+00 RG= 1.181779289294353E+06 RR=-9.313423435657580E+00
2453186.541666667 = A.D. 2004-Jun-30 01:00:00.0000 TDB 
 X =-6.899413631976724E+05 Y =-8.925712518247254E+05 Z = 2.131301871311397E+05
 VX= 7.347385374649372E+00 VY= 6.191032499210495E+00 VZ=-9.220293792366450E-01
 LT= 3.829639776061091E+00 RG= 1.148097121719924E+06 RR=-9.399653390997551E+00
2453186.583333333 = A.D. 2004-Jun-30 02:00:00.0000 TDB 
 X =-6.633767379146152E+05 Y =-8.701353885203425E+05 Z = 2.097754059221864E+05
 VX= 7.411282283606456E+00 VY= 6.274233570964238E+00 VZ=-9.419851148251162E-01
 LT= 3.716224413410554E+00 RG= 1.114096051375958E+06 RR=-9.490663060674091E+00
2453186.625000000 = A.D. 2004-Jun-30 03:00:00.0000 TDB 
 X =-6.365760540488109E+05 Y =-8.473899536231406E+05 Z = 2.063460079120620E+05
 VX= 7.478577603828581E+00 VY= 6.363118048788145E+00 VZ=-9.635138117434121E-01
 LT= 3.601685223149478E+00 RG= 1.079758065990260E+06 RR=-9.586909590096013E+00
2453186.666666667 = A.D. 2004-Jun-30 04:00:00.0000 TDB 
 X =-6.095265309553916E+05 Y =-8.243133352746405E+05 Z = 2.028359808423674E+05
 VX= 7.549581112586803E+00 VY= 6.458342239754700E+00 VZ=-9.868150569337026E-01
 LT= 3.485956261298566E+00 RG= 1.045063396055187E+06 RR=-9.688913855296036E+00
2453186.708333333 = A.D. 2004-Jun-30 05:00:00.0000 TDB 
 X =-5.822142017683522E+05 Y =-8.008813680289281E+05 Z = 1.992385317540612E+05
 VX= 7.624643086071369E+00 VY= 6.560672098176127E+00 VZ=-1.012124224145008E+00
 LT= 3.368964888272751E+00 RG= 1.009990264770983E+06 RR=-9.797272333033083E+00
2453186.750000000 = A.D. 2004-Jun-30 06:00:00.0000 TDB 
 X =-5.546237556309700E+05 Y =-7.770668958310774E+05 Z = 1.955459435608851E+05
 VX= 7.704161160471631E+00 VY= 6.671007721039245E+00 VZ=-1.039720942927375E+00
 LT= 3.250630776122835E+00 RG= 9.745145904243124E+05 RR=-9.912671771572780E+00
2453186.791666667 = A.D. 2004-Jun-30 07:00:00.0000 TDB 
 X =-5.267383528085829E+05 Y =-7.528392348585129E+05 Z = 1.917493967999256E+05
 VX= 7.788588582056799E+00 VY= 6.790414827451599E+00 VZ=-1.069940105240897E+00
 LT= 3.130864718874874E+00 RG= 9.386096297369773E+05 RR=-1.003590746870833E+01
2453186.833333333 = A.D. 2004-Jun-30 08:00:00.0000 TDB 
 X =-4.985394071567932E+05 Y =-7.281635069026616E+05 Z = 1.878387458388346E+05
 VX= 7.878444147875081E+00 VY= 6.920165687438365E+00 VZ=-1.103186346430400E+00
 LT= 3.009567196480749E+00 RG= 9.022455473491325E+05 RR=-1.016790623883479E+01
2453186.875000000 = A.D. 2004-Jun-30 09:00:00.0000 TDB 
 X =-4.700063292376469E+05 Y =-7.029998033188371E+05 Z = 1.838022347462282E+05
 VX= 7.974324189398134E+00 VY= 7.061793020830201E+00 VZ=-1.139953355353619E+00
 LT= 2.886626627719512E+00 RG= 8.653888920522834E+05 RR=-1.030975553452492E+01
2453186.916666667 = A.D. 2004-Jun-30 10:00:00.0000 TDB 
 X =-4.411162220366080E+05 Y =-6.773021242299317E+05 Z = 1.796261320856253E+05
 VX= 8.076916988298510E+00 VY= 7.217161982359168E+00 VZ=-1.180850008953695E+00
 LT= 2.761917226748740E+00 RG= 8.280019541995479E+05 RR=-1.046274072770934E+01
2453186.958333333 = A.D. 2004-Jun-30 11:00:00.0000 TDB 
 X =-4.118435198260419E+05 Y =-6.510170151456302E+05 Z = 1.752942550426741E+05
 VX= 8.187020003890899E+00 VY= 7.388567811088071E+00 VZ=-1.226636329366687E+00
 LT= 2.635296349594468E+00 RG= 7.900419702033526E+05 RR=-1.062839332101253E+01
2453187.000000000 = A.D. 2004-Jun-30 12:00:00.0000 TDB 
 X =-3.821595595343082E+05 Y =-6.240817894245079E+05 Z = 1.707873398405059E+05
 VX= 8.305560161770158E+00 VY= 7.578870609280071E+00 VZ=-1.278273869673316E+00
 LT= 2.506601177427815E+00 RG= 7.514601282067790E+05 RR=-1.080855395207110E+01
2453187.041666667 = A.D. 2004-Jun-30 13:00:00.0000 TDB 
 X =-3.520320737052525E+05 Y =-5.964221733350535E+05 Z = 1.660821944550507E+05
 VX= 8.433617038119973E+00 VY= 7.791685009671805E+00 VZ=-1.336997782464890E+00
 LT= 2.375644528278590E+00 RG= 7.122003124668888E+05 RR=-1.100545561503618E+01
2453187.083333333 = A.D. 2004-Jun-30 14:00:00.0000 TDB 
 X =-3.214245963679149E+05 Y =-5.679491293111373E+05 Z = 1.611505361693133E+05
 VX= 8.572447704083903E+00 VY= 8.031652972807425E+00 VZ=-1.404422318152427E+00
 LT= 2.242209511144341E+00 RG= 6.721975006969403E+05 RR=-1.122183474018109E+01
2453187.125000000 = A.D. 2004-Jun-30 15:00:00.0000 TDB 
 X =-2.902957815584104E+05 Y =-5.385544818913474E+05 Z = 1.559573613898713E+05
 VX= 8.723509422495397E+00 VY= 8.304845977361417E+00 VZ=-1.482699382987713E+00
 LT= 2.106042627209277E+00 RG= 6.313756958638469E+05 RR=-1.146108084167749E+01
2453187.166666667 = A.D. 2004-Jun-30 16:00:00.0000 TDB 
 X =-2.585986573205072E+05 Y =-5.081047521873530E+05 Z = 1.504586012698835E+05
 VX= 8.888470319299678E+00 VY= 8.619374977806883E+00 VZ=-1.574764156432728E+00
 LT= 1.966844771230666E+00 RG= 5.896452284716890E+05 RR=-1.172743940885014E+01
2453187.208333333 = A.D. 2004-Jun-30 17:00:00.0000 TDB 
 X =-2.262798958458103E+05 Y =-4.764322286602062E+05 Z = 1.445976504616794E+05
 VX= 9.069183693555521E+00 VY= 8.986346102415485E+00 VZ=-1.684729130624168E+00
 LT= 1.824259384375754E+00 RG= 5.468992048715740E+05 RR=-1.202628685146310E+01
2453187.250000000 = A.D. 2004-Jun-30 18:00:00.0000 TDB 
 X =-1.932793222208244E+05 Y =-4.433216204097660E+05 Z = 1.383000485082878E+05
 VX= 9.267566182643996E+00 VY= 9.421415962544176E+00 VZ=-1.818542737801059E+00
 LT= 1.677856772582928E+00 RG= 5.030088060245831E+05 RR=-1.236449695482251E+01
2453187.291666667 = A.D. 2004-Jun-30 19:00:00.0000 TDB 
 X =-1.595302372559150E+05 Y =-4.084893499174863E+05 Z = 1.314649927113274E+05
 VX= 9.485228995315955E+00 VY= 9.947438266783294E+00 VZ=-1.985145158462189E+00
 LT= 1.527113441234156E+00 RG= 4.578170921924262E+05 RR=-1.275090121433611E+01
2453187.333333333 = A.D. 2004-Jun-30 20:00:00.0000 TDB 
 X =-1.249620445740011E+05 Y =-3.715499624491431E+05 Z = 1.239511141110920E+05
 VX= 9.722462398476056E+00 VY= 1.059921277711504E+01 VZ=-2.198619098769008E+00
 LT= 1.371385670842901E+00 RG= 4.111310811279722E+05 RR=-1.319675749361434E+01
2453187.375000000 = A.D. 2004-Jun-30 21:00:00.0000 TDB 
 X =-8.950919883676214E+04 Y =-3.319586166592397E+05 Z = 1.155511585271035E+05
 VX= 9.975432234327354E+00 VY= 1.143256630749275E+01 VZ=-2.482489861755770E+00
 LT= 1.209879277740092E+00 RG= 3.627126825569667E+05 RR=-1.371577742507447E+01
2453187.416666667 = A.D. 2004-Jun-30 22:00:00.0000 TDB 
 X =-5.313813040445308E+04 Y =-2.889059024503147E+05 Z = 1.059433839310541E+05
 VX= 1.022798241640687E+01 VY= 1.254309691409678E+01 VZ=-2.879126172034546E+00
 LT= 1.041629834934077E+00 RG= 3.122727685410211E+05 RR=-1.432175782483793E+01
2453187.458333333 = A.D. 2004-Jun-30 23:00:00.0000 TDB 
 X =-1.592993042156803E+04 Y =-2.411092637220984E+05 Z = 9.458880130048248E+04
 VX= 1.042496210714633E+01 VY= 1.410848126768377E+01 VZ=-3.472742523985974E+00
 LT= 8.655617490039887E-01 RG= 2.594888842846848E+05 RR=-1.501504395848058E+01
2453187.500000000 = A.D. 2004-Jul-01 00:00:00.0000 TDB 
 X = 2.163759002142888E+04 Y =-1.863586249867353E+05 Z = 8.048504661071385E+04
 VX= 1.036983445937948E+01 VY= 1.649266636668907E+01 VZ=-4.454097640511225E+00
 LT= 6.809575602454153E-01 RG= 2.041459407796562E+05 RR=-1.571258602445787E+01
2453187.541666667 = A.D. 2004-Jul-01 01:00:00.0000 TDB 
 X = 5.752704902932099E+04 Y =-1.204572558479966E+05 Z = 6.148155349276732E+04
 VX= 9.227146158791044E+00 VY= 2.048851275394957E+01 VZ=-6.328370219491435E+00
 LT= 4.902290778262076E-01 RG= 1.469669802245921E+05 RR=-1.582843684946591E+01
2453187.583333333 = A.D. 2004-Jul-01 02:00:00.0000 TDB 
 X = 8.197387346037116E+04 Y =-3.611675406025483E+04 Z = 3.250062761945759E+04
 VX= 2.615472756300988E+00 VY= 2.649331261590848E+01 VZ=-1.020613358322211E+01
 LT= 3.178574715288795E-01 RG= 9.529127268330780E+04 RR=-1.127236251549246E+01
2453187.625000000 = A.D. 2004-Jul-01 03:00:00.0000 TDB 
 X = 5.988789009040588E+04 Y = 5.858359808428730E+04 Z =-1.100396138529376E+04
 VX=-1.511328847867084E+01 VY= 2.251216807580331E+01 VZ=-1.256167416156748E+01
 LT= 2.818504988539940E-01 RG= 8.449665383996506E+04 RR= 6.532436487928818E+00
2453187.666666667 = A.D. 2004-Jul-01 04:00:00.0000 TDB 
 X =-7.089575680912178E+03 Y = 1.167413333907791E+05 Z =-4.970757087749791E+04
 VX=-1.976051208375854E+01 VY= 1.093832958282368E+01 VZ=-8.873260016992326E+00
 LT= 4.238974152479709E-01 RG= 1.270812480570359E+05 RR= 1.462148866253809E+01
2453187.708333333 = A.D. 2004-Jul-01 05:00:00.0000 TDB 
 X =-7.597351434605679E+04 Y = 1.454818144474159E+05 Z =-7.677681309260824E+04
 VX=-1.832361246971374E+01 VY= 5.757961163702120E+00 VZ=-6.423494534928958E+00
 LT= 6.044013170523740E-01 RG= 1.811949564575685E+05 RR= 1.502780963111301E+01
2453187.750000000 = A.D. 2004-Jul-01 06:00:00.0000 TDB 
 X =-1.389138189583070E+05 Y = 1.614064073443058E+05 Z =-9.725243590816187E+04
 VX=-1.669034819620590E+01 VY= 3.354712824603006E+00 VZ=-5.071696910900110E+00
 LT= 7.809042076470154E-01 RG= 2.341091918730411E+05 RR= 1.432334631679606E+01
2453187.791666667 = A.D. 2004-Jul-01 07:00:00.0000 TDB 
 X =-1.965352039399024E+05 Y = 1.708961651727130E+05 Z =-1.138989885993617E+05
 VX=-1.537344185966099E+01 VY= 2.032840018238129E+00 VZ=-4.235471861476778E+00
 LT= 9.481940944162904E-01 RG= 2.842614382261438E+05 RR= 1.354824305389126E+01
2453187.833333333 = A.D. 2004-Jul-01 08:00:00.0000 TDB 
 X =-2.499297183288747E+05 Y = 1.766344637478683E+05 Z =-1.280641164147712E+05
 VX=-1.432907371017897E+01 VY= 1.213774517909121E+00 VZ=-3.666839441725323E+00
 LT= 1.106633841882749E+00 RG= 3.317604795640127E+05 RR= 1.285640268583236E+01
2453187.875000000 = A.D. 2004-Jul-01 09:00:00.0000 TDB 
 X =-2.999436279111570E+05 Y = 1.799534600029398E+05 Z =-1.404842903030876E+05
 VX=-1.348466975192827E+01 VY= 6.634872739280071E-01 VZ=-3.253264613779051E+00
 LT= 1.257343136986428E+00 RG= 3.769419895865920E+05 RR= 1.225936694580375E+01
2453187.916666667 = A.D. 2004-Jul-01 10:00:00.0000 TDB 
 X =-3.471940025994487E+05 Y = 1.816001914141311E+05 Z =-1.516040246940116E+05
 VX=-1.278637937015827E+01 VY= 2.719771866408334E-01 VZ=-2.937474117073585E+00
 LT= 1.401390401227040E+00 RG= 4.201262730014602E+05 RR= 1.174427441723031E+01
2453187.958333333 = A.D. 2004-Jul-01 11:00:00.0000 TDB 
 X =-3.921359967573254E+05 Y = 1.820318815306202E+05 Z =-1.617125040998473E+05
 VX=-1.219716070248827E+01 VY=-1.860563374602153E-02 VZ=-2.687418154534186E+00
 LT= 1.539669065348164E+00 RG= 4.615811736072887E+05 RR= 1.129627543026906E+01
2453188.000000000 = A.D. 2004-Jul-01 12:00:00.0000 TDB 
 X =-4.351134212544413E+05 Y = 1.815471331745178E+05 Z =-1.710088693936773E+05
 VX=-1.169140425880011E+01 VY=-2.413635315664621E-01 VZ=-2.483779397965801E+00
 LT= 1.672906526019365E+00 RG= 5.015247594395862E+05 RR= 1.090278446449185E+01
2453188.041666667 = A.D. 2004-Jul-01 13:00:00.0000 TDB 
 X =-4.763923413976379E+05 Y = 1.803509049655978E+05 Z =-1.796364454095610E+05
 VX=-1.125100535747736E+01 VY=-4.165234567325273E-01 VZ=-2.314213063491412E+00
 LT= 1.801695024233606E+00 RG= 5.401345798813624E+05 RR= 1.055383162630126E+01
2453188.083333333 = A.D. 2004-Jul-01 14:00:00.0000 TDB 
 X =-5.160521793168115E+05 Y = 1.789681359279004E+05 Z =-1.878664697189651E+05
 VX=-1.086261019406999E+01 VY=-5.502445802220797E-01 VZ=-2.175566523108079E+00
 LT= 1.926699407998739E+00 RG= 5.776099513510867E+05 RR= 1.024205591574250E+01
2453188.125000000 = A.D. 2004-Jul-01 15:00:00.0000 TDB 
 X =-5.545241804461444E+05 Y = 1.767736244159398E+05 Z =-1.954703635970168E+05
 VX=-1.051712719808669E+01 VY=-6.651849953331672E-01 VZ=-2.051777043496082E+00
 LT= 2.047971205396689E+00 RG= 6.139663215790960E+05 RR= 9.960604625052026E+00
2453188.166666667 = A.D. 2004-Jul-01 16:00:00.0000 TDB 
 X =-5.918175389131199E+05 Y = 1.742025104072508E+05 Z =-2.026583259294011E+05
 VX=-1.020673565181248E+01 VY=-7.603137957141687E-01 VZ=-1.943907482351174E+00
 LT= 2.166022822902134E+00 RG= 6.493573061619295E+05 RR= 9.705019991636448E+00
2453188.208333333 = A.D. 2004-Jul-01 17:00:00.0000 TDB 
 X =-6.280478974622551E+05 Y = 1.713178860591225E+05 Z =-2.094819117669071E+05
 VX=-9.925734460120633E+00 VY=-8.399706259654284E-01 VZ=-1.848907620838039E+00
 LT= 2.281141056340685E+00 RG= 6.838688843250906E+05 RR= 9.471475480188289E+00
2453188.250000000 = A.D. 2004-Jul-01 18:00:00.0000 TDB 
 X =-6.633126810386267E+05 Y = 1.681694396829641E+05 Z =-2.159831197468535E+05
 VX=-9.669641410942511E+00 VY=-9.073364728830378E-01 VZ=-1.764474251464172E+00
 LT= 2.393571395530303E+00 RG= 7.175746520645198E+05 RR= 9.256885171680675E+00
2453188.291666667 = A.D. 2004-Jul-01 19:00:00.0000 TDB 
 X =-6.976948853350936E+05 Y = 1.647969322751206E+05 Z =-2.221966623915494E+05
 VX=-9.434878997242748E+00 VY=-9.647930919966998E-01 VZ=-1.688833516100774E+00
 LT= 2.503525842679903E+00 RG= 7.505381660435292E+05 RR= 9.058733261685637E+00
2453188.333333333 = A.D. 2004-Jul-01 20:00:00.0000 TDB 
 X =-7.312659129229488E+05 Y = 1.612326244911960E+05 Z =-2.281515930705371E+05
 VX=-9.218553156121983E+00 VY=-1.014157059867741E+00 VZ=-1.620595477964958E+00
 LT= 2.611188961790923E+00 RG= 7.828147571577689E+05 RR= 8.874947567898168E+00
2453188.375000000 = A.D. 2004-Jul-01 21:00:00.0000 TDB 
 X =-7.640877323246767E+05 Y = 1.575030109680488E+05 Z =-2.338724976603559E+05
 VX=-9.018294365771663E+00 VY=-1.056836520078698E+00 VZ=-1.558654356387135E+00
 LT= 2.716722610515454E+00 RG= 8.144529491106047E+05 RR= 8.703804869789058E+00
2453188.416666667 = A.D. 2004-Jul-01 22:00:00.0000 TDB 
 X =-7.962145466442156E+05 Y = 1.536300852792004E+05 Z =-2.393803842392230E+05
 VX=-8.832141466706055E+00 VY=-1.093938774126458E+00 VZ=-1.502118481707085E+00
 LT= 2.820269681268205E+00 RG= 8.454955799702717E+05 RR= 8.543859337773879E+00
2453188.458333333 = A.D. 2004-Jul-01 23:00:00.0000 TDB 
 X =-8.276941007853880E+05 Y = 1.496322793277585E+05 Z =-2.446933586741788E+05
 VX=-8.658455321202359E+00 VY=-1.126345761781542E+00 VZ=-1.450260101241906E+00
 LT= 2.921957089398794E+00 RG= 8.759806980013902E+05 RR= 8.393887832833139E+00
2453188.500000000 = A.D. 2004-Jul-02 00:00:00.0000 TDB 
 X =-8.585687181333696E+05 Y = 1.455251721891539E+05 Z =-2.498271454366713E+05
 VX=-8.495853681513633E+00 VY=-1.154768058492222E+00 VZ=-1.402478756618004E+00
 LT= 3.021898182928823E+00 RG= 9.059422840859652E+05 RR= 8.252847648103820E+00
$$EOE
*******************************************************************************
 
TIME

  Barycentric Dynamical Time ("TDB" or T_eph) output was requested. This
continuous coordinate time is equivalent to the relativistic proper time
of a clock at rest in a reference frame co-moving with the solar system
barycenter but outside the system's gravity well. It is the independent
variable in the solar system relativistic equations of motion.

  TDB runs at a uniform rate of one SI second per second and is independent
of irregularities in Earth's rotation.
 
CALENDAR SYSTEM

  Mixed calendar mode was active such that calendar dates after AD 1582-Oct-15
(if any) are in the modern Gregorian system. Dates prior to 1582-Oct-5 (if any)
are in the Julian calendar system, which is automatically extended for dates
prior to its adoption on 45-Jan-1 BC.  The Julian calendar is useful for
matching historical dates. The Gregorian calendar more accurately corresponds
to the Earth's orbital motion and seasons. A "Gregorian-only" calendar mode is
available if such physical events are the primary interest.

REFERENCE FRAME AND COORDINATES

  Ecliptic at the standard reference epoch

    Reference epoch: J2000.0
    X-Y plane: adopted Earth orbital plane at the reference epoch
               Note: IAU76 obliquity of 84381.448 arcseconds wrt ICRF X-Y plane
    X-axis   : ICRF
    Z-axis   : perpendicular to the X-Y plane in the directional (+ or -) sense
               of Earth's north pole at the reference epoch.

  Symbol meaning:

    JDTDB    Julian Day Number, Barycentric Dynamical Time
      X      X-component of position vector (km)
      Y      Y-component of position vector (km)
      Z      Z-component of position vector (km)
      VX     X-component of velocity vector (km/sec)                           
      VY     Y-component of velocity vector (km/sec)                           
      VZ     Z-component of velocity vector (km/sec)                           
      LT     One-way down-leg Newtonian light-time (sec)
      RG     Range; distance from coordinate center (km)
      RR     Range-rate; radial velocity wrt coord. center (km/sec)

ABERRATIONS AND CORRECTIONS

 Geometric state vectors have NO corrections or aberrations applied.

Computations by ...

    Solar System Dynamics Group, Horizons On-Line Ephemeris System
    4800 Oak Grove Drive, Jet Propulsion Laboratory
    Pasadena, CA  91109   USA

    General site: https://ssd.jpl.nasa.gov/
    Mailing list: https://ssd.jpl.nasa.gov/email_list.html
    System news : https://ssd.jpl.nasa.gov/horizons/news.html
    User Guide  : https://ssd.jpl.nasa.gov/horizons/manual.html
    Connect     : browser        https://ssd.jpl.nasa.gov/horizons/app.html#/x
                  API            https://ssd-api.jpl.nasa.gov/doc/horizons.html
                  command-line   telnet ssd.jpl.nasa.gov 6775
                  e-mail/batch   https://ssd.jpl.nasa.gov/ftp/ssd/horizons_batch.txt
                  scripts        https://ssd.jpl.nasa.gov/ftp/ssd/SCRIPTS
    Author      : Jon.D.Giorgini@jpl.nasa.gov
*******************************************************************************
